#aV2008  4 26  0  0   .00000000      96 DD+AD WGS84 FIT  NGA
## 1476 518400.00000000   900.00000000 54582  .0000000000000
+   31     2  3  4  5  6  7  8  9 10 11 12 13 14 15 16 17 18
+         19 20 21 22 23 24 25 26 27 28 29 30 31 32  0  0  0
+          0  0  0  0  0  0  0  0  0  0  0  0  0  0  0  0  0
+          0  0  0  0  0  0  0  0  0  0  0  0  0  0  0  0  0
+          0  0  0  0  0  0  0  0  0  0  0  0  0  0  0  0  0
++         0  0  0  0  0  0  0  0  0  0  0  0  0  0  0  0  0
++         0  0  0  0  0  0  0  0  0  0  0  0  0  0  0  0  0
++         0  0  0  0  0  0  0  0  0  0  0  0  0  0  0  0  0
++         0  0  0  0  0  0  0  0  0  0  0  0  0  0  0  0  0
++         0  0  0  0  0  0  0  0  0  0  0  0  0  0  0  0  0
%c cc cc ccc ccc cccc cccc cccc cccc ccccc ccccc ccccc ccccc
%c cc cc ccc ccc cccc cccc cccc cccc ccccc ccccc ccccc ccccc
%f  0.0000000  0.000000000  0.00000000000  0.000000000000000
%f  0.0000000  0.000000000  0.00000000000  0.000000000000000
%i    0    0    0    0      0      0      0      0         0
%i    0    0    0    0      0      0      0      0         0
/*      NGA, ST. LOUIS,MO.                                  
/*   EPHEMERIS COMPUTED FROM  3 DAYS OF DATA                
/* CCCCCCCCCCCCCCCCCCCCCCCCCCCCCCCCCCCCCCCCCCCCCCCCCCCCCCCCC
/* CCCCCCCCCCCCCCCCCCCCCCCCCCCCCCCCCCCCCCCCCCCCCCCCCCCCCCCCC
*  2008  4 26  2 45   .00000000                                                 
P  2 -22431.542056  12795.401523   5195.629919    193.789832                    
V  2  -7714.587458   -821.301492 -30661.233657       .035834                    
P  3  11291.365560 -19486.638192  13548.211929    219.546335                    
V  3   2322.745494  18011.177156  23881.992870       .052705                    
P  4 -25681.644678   5262.305735  -5444.177687    -53.995119                    
V  4   5302.901321  -5092.814934 -30121.538891      -.080123                    
P  5  11920.930387  19822.488614 -13446.226821    758.228466                    
V  5 -15187.030323  -7220.979549 -24455.335629       .087550                    
P  6  16066.591359  -5183.564642  20706.385346    110.925567                    
V  6  -2183.944841  25885.842852   8214.745588       .108446                    
P  7 -12030.839596 -11039.913425  20936.404212    -59.506358                    
V  7  24624.515747 -10146.479069   8725.907456       .108118                    
P  8 -22874.153360  -2187.504057  13635.872125   -150.414895                    
V  8  15991.931051  -6570.194798  25158.216562      -.014884                    
P  9  -3836.620349  16956.376358 -20660.423768    121.672427                    
V  9 -23244.914280   8859.462095  12116.251080       .017627                    
P 10 -11739.798811   9718.162800  21635.388470      -.976052                    
V 10 -20991.593796 -18175.009213  -2884.480849      -.002768                    
P 11  -1203.266079 -17896.315734 -19662.744799     26.105671                    
V 11  22210.082253 -11677.904674   9673.485691      -.002874                    
P 12   6739.577921  19980.439401 -16110.013927   -359.121716                    
V 12 -17087.717046 -11629.517916 -21357.130854      -.001135                    
P 13  -7492.388550 -18687.719934  17219.887346    252.396703                    
V 13   5591.099053 -21317.577199 -20535.797124       .018151                    
P 14  14441.083552   1877.132038 -22112.026837   -273.430983                    
V 14  -5213.482416  27751.522664  -1135.339656       .040514                    
P 15  -7049.257718  25195.020778   4576.819980   -102.334748                    
V 15  -1967.870052  -6151.141643  30977.745600      -.052084                    
P 16  15630.171986  -5676.153502  20828.007709    127.310382                    
V 16  19552.710315  17479.129806  -9752.569977      -.012955                    
P 17 -15098.379493  -2004.004948 -21720.191637     39.526049                    
V 17   4604.244651 -27289.269779   -837.849031      -.002731                    
P 18  19450.073361  18339.219121   1316.180515   -183.865837                    
V 18  -3005.741225   1227.170071  31179.001163       .035239                    
P 19   8445.784347 -24822.426902   3664.963498     28.277392                    
V 19   1911.875948   5143.561091  31341.263707       .009748                    
P 20  -8617.965430 -20373.338078 -14850.201266    115.696379                    
V 20  16084.576893   9748.814155 -22846.706890      -.008168                    
P 21  17718.520584   8161.495340  18457.838566     66.020686                    
V 21 -21165.709858   8980.238898  15896.121953      -.010336                    
P 22  22265.570773   8803.836161 -11397.330674    210.795552                    
V 22   9130.173200  11877.401952  26607.108425       .002384                    
P 23   -155.276124 -25644.219727   6347.589708    349.973146                    
V 23   3888.079336  -7663.516238 -30761.193749       .023232                    
P 24   2820.083118  15287.313685  21717.411373     89.234914                    
V 24 -25903.414892   8262.285628  -2194.375006       .029910                    
P 25  -4971.241151 -14569.198168  22018.718209   -106.925884                    
V 25  24317.577204 -11885.033602  -2235.897943      -.282714                    
P 26  -9652.128586  23178.889470   7249.267493    239.879147                    
V 26   -135.398023 -10216.479480  31011.807603       .084360                    
P 27 -14925.727494  -8923.386773  20787.190318    184.011879                    
V 27  22341.722162 -10875.167981  11615.585703       .027530                    
P 28 -22452.146591 -10847.662106  -9236.169247    -18.246389                    
V 28  -7711.226371  -9692.065792  28600.283206      -.005230                    
P 29   6496.101570  21322.064433  14584.127877    -43.646440                    
V 29  -5320.832106  17636.260068 -23580.345795       .003636                    
P 30  16680.695939  19401.721770  -7652.582212     73.623011                    
V 30  -9130.685719  -3268.959001 -29382.962822       .017298                    
P 31  25368.333581  -7139.268408  -3544.195109    -17.771192                    
V 31  -3524.662598   4035.792991 -31412.737056      -.012902                    
P 32  11172.456208  -9805.541452 -21589.739330    275.474033                    
V 32  20282.241393  19887.599327   1601.434543       .061610                    
EOF
